NORAD_CAT_ID,OBJECT_NAME,OBJECT_TYPE,EPOCH,MEAN_MOTION,ECCENTRICITY,INCLINATION,RA_OF_ASC_NODE,ARG_OF_PERICENTER,MEAN_ANOMALY,BSTAR,MEAN_MOTION_DOT,MEAN_MOTION_DDOT,TLE_LINE0,TLE_LINE1,TLE_LINE2,SEMIMAJOR_AXIS,PERIOD,APOGEE,PERIGEE,DECAYED
52550.0,STARLINK-3965,PAYLOAD,2023-08-11 04:41:56,15.08841909,9.31e-05,53.2187,35.6544,84.9659,275.144,9.4134e-05,1.211e-05,0.0,0 STARLINK-3965,1 52550U 22051T   23223.19579063  .00001211  00000-0  94134-4 0  9999,2 52550  53.2187  35.6544 0000931  84.9659 275.1440 15.08841909 69380,6917.875,95.437,540.384,539.095,0.0
52550.0,STARLINK-3965,PAYLOAD,2023-08-12 10:54:15,15.08840539,0.0001021,53.2176,30.0044,80.3321,279.7787,6.7269e-05,7.83e-06,0.0,0 STARLINK-3965,1 52550U 22051T   23224.45435105  .00000783  00000-0  67269-4 0  9999,2 52550  53.2176  30.0044 0001021  80.3321 279.7787 15.08840539 69572,6917.879,95.438,540.45,539.037,0.0
52550.0,STARLINK-3965,PAYLOAD,2023-08-13 17:06:35,15.08842493,9.34e-05,53.2182,24.3542,83.0317,277.0781,2.9671e-05,1.85e-06,0.0,0 STARLINK-3965,1 52550U 22051T   23225.71291158  .00000185  00000-0  29671-4 0  9998,2 52550  53.2182  24.3542 0000934  83.0317 277.0781 15.08842493 69762,6917.873,95.437,540.384,539.092,0.0
52550.0,STARLINK-3965,PAYLOAD,2023-08-15 16:48:09,15.08841042,0.0001117,53.2187,15.4312,96.34,263.772,8.6549e-05,1.09e-05,0.0,0 STARLINK-3965,1 52550U 22051T   23227.70011109  .00001090  00000-0  86549-4 0  9998,2 52550  53.2187  15.4312 0001117  96.3400 263.7720 15.08841042 70066,6917.877,95.437,540.515,538.969,0.0
52550.0,STARLINK-3965,PAYLOAD,2023-08-16 10:17:24,15.08834346,0.0001299,53.2168,12.1612,97.1483,262.9656,4.5938e-05,4.43e-06,0.0,0 STARLINK-3965,1 52550U 22051T   23228.42875621  .00000443  00000-0  45938-4 0  9993,2 52550  53.2168  12.1612 0001299  97.1483 262.9656 15.08834346 70173,6917.898,95.438,540.661,538.864,0.0
52550.0,STARLINK-3965,PAYLOAD,2023-08-17 18:05:06,15.0884377,0.000126,53.2156,6.2155,105.0062,255.1069,0.00011306,1.512e-05,0.0,0 STARLINK-3965,1 52550U 22051T   23229.75355089  .00001512  00000-0  11306-3 0  9990,2 52550  53.2156   6.2155 0001260 105.0062 255.1069 15.08843770 70371,6917.869,95.437,540.606,538.862,0.0
52550.0,STARLINK-3965,PAYLOAD,2023-08-18 08:23:35,15.08832931,0.000136,53.2185,3.5384,83.682,276.4327,8.1573e-05,1.01e-05,0.0,0 STARLINK-3965,1 52550U 22051T   23230.34972058  .00001010  00000-0  81573-4 0  9995,2 52550  53.2185   3.5384 0001360  83.6820 276.4327 15.08832931 70461,6917.902,95.438,540.708,538.826,0.0
52550.0,STARLINK-3965,PAYLOAD,2023-08-19 17:46:41,15.08843547,0.000119,53.2188,357.2946,82.9541,277.1587,4.9956e-05,5.07e-06,0.0,0 STARLINK-3965,1 52550U 22051T   23231.74075848  .00000507  00000-0  49956-4 0  9990,2 52550  53.2188 357.2946 0001190  82.9541 277.1587 15.08843547 70674,6917.87,95.437,540.558,538.911,0.0
52550.0,STARLINK-3965,PAYLOAD,2023-08-20 08:05:10,15.08835789,0.0001339,53.2184,354.6177,76.37,283.7442,0.00011305,1.512e-05,0.0,0 STARLINK-3965,1 52550U 22051T   23232.33692276  .00001512  00000-0  11305-3 0  9999,2 52550  53.2184 354.6177 0001339  76.3700 283.7442 15.08835789 70768,6917.893,95.438,540.685,538.832,0.0
52550.0,STARLINK-3965,PAYLOAD,2023-08-20 17:37:28,15.08847444,0.0001193,53.2187,352.8327,90.7412,269.3717,0.00017397,2.483e-05,0.0,0 STARLINK-3965,1 52550U 22051T   23232.73435347  .00002483  00000-0  17397-3 0  9992,2 52550  53.2187 352.8327 0001193  90.7412 269.3717 15.08847444 70829,6917.858,95.437,540.548,538.897,0.0
52550.0,STARLINK-3965,PAYLOAD,2023-08-21 03:09:47,15.0884009,0.0001195,53.2176,351.0482,87.9096,272.2033,6.7203e-05,7.82e-06,0.0,0 STARLINK-3965,1 52550U 22051T   23233.13180083  .00000782  00000-0  67203-4 0  9993,2 52550  53.2176 351.0482 0001195  87.9096 272.2033 15.08840090 70888,6917.88,95.438,540.572,538.918,0.0
52550.0,STARLINK-3965,PAYLOAD,2023-08-22 12:32:52,15.08855613,0.0001273,53.2185,344.8068,72.1039,288.0092,0.00015004,2.102e-05,0.0,0 STARLINK-3965,1 52550U 22051T   23234.52282708  .00002102  00000-0  15004-3 0  9993,2 52550  53.2185 344.8068 0001273  72.1039 288.0092 15.08855613 71099,6917.833,95.437,540.578,538.817,0.0
52550.0,STARLINK-3965,PAYLOAD,2023-08-23 12:23:40,15.08836181,0.0001122,53.2182,340.3457,94.7416,265.3704,6.8147e-05,7.97e-06,0.0,0 STARLINK-3965,1 52550U 22051T   23235.51643985  .00000797  00000-0  68147-4 0  9996,2 52550  53.2182 340.3457 0001122  94.7416 265.3704 15.08836181 71245,6917.892,95.438,540.533,538.981,0.0
52550.0,STARLINK-3965,PAYLOAD,2023-08-24 12:14:27,15.08831544,0.0001308,53.2176,335.8853,90.679,269.4352,-0.0001727,-3.035e-05,0.0,0 STARLINK-3965,1 52550U 22051T   23236.51004111 -.00003035  00000-0 -17270-3 0  9999,2 52550  53.2176 335.8853 0001308  90.6790 269.4352 15.08831544 71324,6917.906,95.438,540.676,538.866,0.0
52550.0,STARLINK-3965,PAYLOAD,2023-08-25 10:29:51,15.08837973,0.000115,53.2173,331.7219,91.1659,268.9465,0.00017446,2.49e-05,0.0,0 STARLINK-3965,1 52550U 22051T   23237.43740424  .00002490  00000-0  17446-3 0  9992,2 52550  53.2173 331.7219 0001150  91.1659 268.9465 15.08837973 71531,6917.887,95.438,540.547,538.956,0.0
52550.0,STARLINK-3965,PAYLOAD,2023-08-25 13:40:37,15.08843717,0.0001161,53.217,331.1268,89.2615,270.851,0.00032442,4.88e-05,0.0,0 STARLINK-3965,1 52550U 22051T   23237.56988328  .00004880  00000-0  32442-3 0  9991,2 52550  53.2170 331.1268 0001161  89.2615 270.8510 15.08843717 71488,6917.869,95.437,540.537,538.931,0.0
52550.0,STARLINK-3965,PAYLOAD,2023-08-26 11:56:01,15.08843205,0.000119,53.2165,326.9629,100.3238,259.7889,0.00024117,3.553e-05,0.0,0 STARLINK-3965,1 52550U 22051T   23238.49724532  .00003553  00000-0  24117-3 0  9995,2 52550  53.2165 326.9629 0001190 100.3238 259.7889 15.08843205 71626,6917.871,95.437,540.559,538.912,0.0
52550.0,STARLINK-3965,PAYLOAD,2023-08-27 10:11:25,15.08842999,0.0001272,53.2173,322.7999,91.7913,268.3225,0.0001,1.304e-05,0.0,0 STARLINK-3965,1 52550U 22051T   23239.42460612  .00001304  00000-0  10000-3 0  9993,2 52550  53.2173 322.7999 0001272  91.7913 268.3225 15.08842999 71835,6917.871,95.437,540.616,538.856,0.0
52550.0,STARLINK-3965,PAYLOAD,2023-08-27 14:57:35,15.08846132,0.0001212,53.2167,321.9072,92.3441,267.769,0.0001751,2.5e-05,0.0,0 STARLINK-3965,1 52550U 22051T   23239.62332453  .00002500  00000-0  17510-3 0  9998,2 52550  53.2167 321.9072 0001212  92.3441 267.7690 15.08846132 71795,6917.862,95.437,540.565,538.888,0.0
52550.0,STARLINK-3965,PAYLOAD,2023-08-28 05:16:03,15.08838505,0.0001077,53.2175,319.2319,85.0245,275.087,6.9664e-05,8.21e-06,0.0,0 STARLINK-3965,1 52550U 22051T   23240.21949002  .00000821  00000-0  69664-4 0  9991,2 52550  53.2175 319.2319 0001077  85.0245 275.0870 15.08838505 71953,6917.885,95.438,540.495,539.005,0.0
52550.0,STARLINK-3965,PAYLOAD,2023-08-28 11:37:36,15.08843832,0.0001345,53.2174,318.0426,92.5455,267.5692,0.00013111,1.8e-05,0.0,0 STARLINK-3965,1 52550U 22051T   23240.48444701  .00001800  00000-0  13111-3 0  9999,2 52550  53.2174 318.0426 0001345  92.5455 267.5692 15.08843832 71926,6917.869,95.437,540.664,538.803,0.0
52550.0,STARLINK-3965,PAYLOAD,2023-08-29 09:52:59,15.08850279,0.0001644,53.2175,313.8795,98.8125,261.3053,-7.8206e-06,-4.13e-06,0.0,0 STARLINK-3965,1 52550U 22051T   23241.41180359 -.00000413  00000-0 -78206-5 0  9998,2 52550  53.2175 313.8795 0001644  98.8125 261.3053 15.08850279 72134,6917.849,95.437,540.851,538.577,0.0
52550.0,STARLINK-3965,PAYLOAD,2023-08-29 11:28:23,15.08844993,0.0001411,53.2173,313.5821,91.9019,268.2135,0.00014003,1.942e-05,0.0,0 STARLINK-3965,1 52550U 22051T   23241.47804629  .00001942  00000-0  14003-3 0  9996,2 52550  53.2173 313.5821 0001411  91.9019 268.2135 15.08844993 72073,6917.865,95.437,540.706,538.754,0.0
52550.0,STARLINK-3965,PAYLOAD,2023-08-30 09:43:47,15.08836452,0.0001314,53.2171,309.4179,91.0237,269.0905,1.8048e-05,-1e-08,0.0,0 STARLINK-3965,1 52550U 22051T   23242.40541251 -.00000001  00000-0  18048-4 0  9999,2 52550  53.2171 309.4179 0001314  91.0237 269.0905 15.08836452 72284,6917.891,95.438,540.665,538.847,0.0
52550.0,STARLINK-3965,PAYLOAD,2023-08-30 11:19:10,15.0883706,0.0001309,53.2171,309.1206,90.6246,269.4896,1.7234e-05,-1.4e-07,0.0,0 STARLINK-3965,1 52550U 22051T   23242.47165196 -.00000014  00000-0  17234-4 0  9996,2 52550  53.2171 309.1206 0001309  90.6246 269.4896 15.08837060 72224,6917.889,95.438,540.66,538.849,0.0
52550.0,STARLINK-3965,PAYLOAD,2023-08-31 04:48:25,15.0883865,0.0001233,53.2169,305.8496,92.1501,267.9632,4.8023e-05,4.76e-06,0.0,0 STARLINK-3965,1 52550U 22051T   23243.20029084  .00000476  00000-0  48023-4 0  9994,2 52550  53.2169 305.8496 0001233  92.1501 267.9632 15.08838650 72331,6917.885,95.438,540.602,538.897,0.0
52550.0,STARLINK-3965,PAYLOAD,2023-09-01 03:03:49,15.08837898,0.0001188,53.2166,301.6864,90.6378,269.475,9.5953e-05,1.239e-05,0.0,0 STARLINK-3965,1 52550U 22051T   23244.12765131  .00001239  00000-0  95953-4 0  9998,2 52550  53.2166 301.6864 0001188  90.6378 269.4750 15.08837898 72549,6917.887,95.438,540.574,538.93,0.0
52550.0,STARLINK-3965,PAYLOAD,2023-09-01 11:00:44,15.08841078,0.0001184,53.2165,300.1997,90.6101,269.5027,0.000116,1.559e-05,0.0,0 STARLINK-3965,1 52550U 22051T   23244.45884967  .00001559  00000-0  11600-3 0  9994,2 52550  53.2165 300.1997 0001184  90.6101 269.5027 15.08841078 72520,6917.877,95.437,540.561,538.923,0.0
52550.0,STARLINK-3965,PAYLOAD,2023-09-01 20:33:03,15.08842658,0.0001204,53.2169,298.4162,90.6901,269.4229,0.00010686,1.413e-05,0.0,0 STARLINK-3965,1 52550U 22051T   23244.85628884  .00001413  00000-0  10686-3 0  9994,2 52550  53.2169 298.4162 0001204  90.6901 269.4229 15.08842658 72582,6917.872,95.437,540.57,538.904,0.0
52550.0,STARLINK-3965,PAYLOAD,2023-09-02 04:29:59,15.08831508,0.000157,53.2181,296.9297,101.7115,258.4053,5.0576e-06,-2.08e-06,0.0,0 STARLINK-3965,1 52550U 22051T   23245.18749941 -.00000208  00000-0  50576-5 0  9995,2 52550  53.2181 296.9297 0001570 101.7115 258.4053 15.08831508 72704,6917.906,95.438,540.857,538.685,0.0
